[{"OBJECT_NAME":"STARLINK-11095 [DTC]","OBJECT_ID":"2024-088N","EPOCH":"2026-03-09T22:20:21.929568","MEAN_MOTION":15.6970078,"ECCENTRICITY":8.605e-5,"INCLINATION":53.1588,"RA_OF_ASC_NODE":324.8155,"ARG_OF_PERICENTER":65.4441,"MEAN_ANOMALY":294.6667,"EPHEMERIS_TYPE":0,"CLASSIFICATION_TYPE":"U","NORAD_CAT_ID":59720,"ELEMENT_SET_NO":999,"REV_AT_EPOCH":10631,"BSTAR":1.1167879e-5,"MEAN_MOTION_DOT":7.64e-6,"MEAN_MOTION_DDOT":0},{"OBJECT_NAME":"OBJECT AC","OBJECT_ID":"2021-022AC","EPOCH":"2026-03-09T23:52:41.913120","MEAN_MOTION":15.70257251,"ECCENTRICITY":0.00077249,"INCLINATION":97.3906,"RA_OF_ASC_NODE":343.806,"ARG_OF_PERICENTER":62.9634,"MEAN_ANOMALY":297.2416,"EPHEMERIS_TYPE":0,"CLASSIFICATION_TYPE":"U","NORAD_CAT_ID":47958,"ELEMENT_SET_NO":999,"REV_AT_EPOCH":27427,"BSTAR":0.0010525747,"MEAN_MOTION_DOT":0.00129469,"MEAN_MOTION_DDOT":0}]
